INTELSAT 21 (IS-21)     
1 38749U 12045A   26156.69435491 -.00000272  00000+0  00000+0 0  9994
2 38749   0.0406  83.4268 0002104 357.8454   4.8281  1.00273438 50418
INTELSAT 23 (IS-23)     
1 38867U 12057A   26156.48138558 -.00000272  00000+0  00000+0 0  9999
2 38867   0.0108 309.7092 0000304 191.6948 232.7913  1.00267878 49838
FM-6                    
1 39360U 13058A   26156.68274148 -.00000001  00000+0  00000+0 0  9998
2 39360   0.0108  36.5239 0002447 112.0036 235.0340  1.00256096 45959
INTELSAT 30 (IS-30)     
1 40271U 14062A   26156.54439301 -.00000138  00000+0  00000+0 0  9997
2 40271   0.0238  43.9261 0001141   7.3226 303.6422  1.00272676  6671
DIRECTV 14              
1 40333U 14078B   26156.61487580 -.00000113  00000+0  00000+0 0  9996
2 40333   0.0095 328.0277 0000353 201.4341 206.7081  1.00270531 41923
DIRECTV 15              
1 40663U 15026A   26156.55880380 -.00000091  00000+0  00000+0 0  9999
2 40663   0.0173   3.8212 0000172 199.1088 149.3472  1.00275794 40340
SKY MEXICO-1            
1 40664U 15026B   26156.54759970 -.00000222  00000+0  00000+0 0  9995
2 40664   0.0153  12.7905 0002319  77.6534 281.8740  1.00272637 40330
INTELSAT 34 (IS-34)     
1 40874U 15039A   26156.69470156 -.00000273  00000+0  00000+0 0  9990
2 40874   0.0084 343.8563 0000470  37.2580  67.6106  1.00270954 39528
INTELSAT 31 (IS-31)     
1 41581U 16035A   26156.54439301 -.00000138  00000+0  00000+0 0  9994
2 41581   0.0175 260.7494 0000767 343.6712 110.4954  1.00268422 36561
INTELSAT 36 (IS-36)     
1 41747U 16053A   26156.43423860 -.00000012  00000+0  00000+0 0  9990
2 41747   0.0109   5.6814 0001671 335.1773 137.8309  1.00271379 35844
INTELSAT 32E (IS-32E)   
1 41945U 17007B   26156.48337891 -.00000257  00000+0  00000+0 0  9994
2 41945   0.0172 347.1642 0000638 359.6460  37.9426  1.00269343 34109
INTELSAT 35E (IS-35E)   
1 42818U 17041A   26156.69901191 -.00000225  00000+0  00000+0 0  9990
2 42818   0.0143  22.8830 0001944  51.0111  37.3928  1.00273675 32708
INTELSAT 37E (IS-37E)   
1 42950U 17059A   26156.70221860 -.00000128  00000+0  00000+0 0  9998
2 42950   0.0152  17.4157 0002592  73.6329  37.8961  1.00271871 31952
AZERSPACE 2 (IS-38)     
1 43632U 18074A   26156.64347596  .00000149  00000+0  00000+0 0  9994
2 43632   0.0187 327.1996 0001545 107.5966  96.0387  1.00271669 28333
HORIZONS-3E             
1 43633U 18074B   26156.69598778 -.00000018  00000+0  00000+0 0  9996
2 43633   0.0178 154.2518 0000812 118.8311  40.5954  1.00271052 28226
AT&T T-16               
1 44333U 19034A   26156.61452912 -.00000103  00000+0  00000+0 0  9997
2 44333   0.0214  58.9245 0000379 229.6587  85.8428  1.00272858 25518
INTELSAT 39 (IS-39)     
1 44476U 19049B   26156.71967478  .00000046  00000+0  00000+0 0  9995
2 44476   0.0172 315.8869 0000671   8.3141 250.9884  1.00271213 25019
GALAXY 30 (G-30)        
1 46114U 20056C   26156.68100815  .00000049  00000+0  00000+0 0  9999
2 46114   0.0181 332.7175 0002398  99.1338 302.4086  1.00272553 21170
GALAXY 33 (G-33)        
1 54026U 22128A   26156.67944814  .00000091  00000+0  00000+0 0  9993
2 54026   0.0188  41.4682 0001990  33.6303 290.6250  1.00271983 13625
GALAXY 34 (G-34)        
1 54027U 22128B   26156.68022815  .00000071  00000+0  00000+0 0  9991
2 54027   0.0097  19.8053 0002150  65.6071 284.5904  1.00277143 13792
GALAXY 31 (G-31)        
1 54243U 22153A   26156.68178816  .00000026  00000+0  00000+0 0  9992
2 54243   0.0176  69.8885 0001461   5.4863 303.1817  1.00272196  7015
GALAXY 32 (G-32)        
1 54244U 22153B   26156.61652248 -.00000162  00000+0  00000+0 0  9994
2 54244   0.0122  18.4604 0002392  19.3167 347.2237  1.00272347 13022
GALAXY 35 (G-35)        
1 54741U 22170A   26156.61608913 -.00000150  00000+0  00000+0 0  9992
2 54741   0.0133  28.4776 0002244  49.5379 304.7294  1.00272268 12777
GALAXY 36 (G-36)        
1 54742U 22170B   26156.61686913 -.00000173  00000+0  00000+0 0  9994
2 54742   0.0127 255.2674 0002808 186.6505 305.2124  1.00271918 12654
GALAXY 37 (G-37)        
1 57493U 23112A   26156.68066147  .00000061  00000+0  00000+0 0  9990
2 57493   0.0168 322.4830 0002153 112.6420 297.0301  1.00271269 10421
